[{"OBJECT_NAME":"JILIN-1 GAOFEN 03D51","OBJECT_ID":"2022-155B","EPOCH":"2026-03-09T23:29:49.177824","MEAN_MOTION":15.53426139,"ECCENTRICITY":0.00041755,"INCLINATION":97.6074,"RA_OF_ASC_NODE":206.9827,"ARG_OF_PERICENTER":0.2609,"MEAN_ANOMALY":359.8645,"EPHEMERIS_TYPE":0,"CLASSIFICATION_TYPE":"U","NORAD_CAT_ID":54252,"ELEMENT_SET_NO":999,"REV_AT_EPOCH":18430,"BSTAR":0.00078105929,"MEAN_MOTION_DOT":0.00049603,"MEAN_MOTION_DDOT":0},{"OBJECT_NAME":"MOLA","OBJECT_ID":"2024-053B","EPOCH":"2026-03-09T13:55:02.414784","MEAN_MOTION":15.51750904,"ECCENTRICITY":0.0002562,"INCLINATION":49.987,"RA_OF_ASC_NODE":89.7695,"ARG_OF_PERICENTER":328.5586,"MEAN_ANOMALY":31.5227,"EPHEMERIS_TYPE":0,"CLASSIFICATION_TYPE":"U","NORAD_CAT_ID":59289,"ELEMENT_SET_NO":999,"REV_AT_EPOCH":10599,"BSTAR":0.00057233,"MEAN_MOTION_DOT":0.00034507,"MEAN_MOTION_DDOT":0}]
